*******************************************************************************
JPL/HORIZONS                 120178 (2003 OP32)            2013-Dec-01 19:27:13
Rec #:120178 (+COV)   Soln.date: 2013-Nov-22_07:48:50    # obs: 101 (1990-2013)
 
FK5/J2000.0 helio. ecliptic osc. elements (au, days, deg., period=Julian yrs): 
 
  EPOCH=  2453449.5 ! 2005-Mar-20.00 (CT)          Residual RMS= .33979        
   EC= .1066200408212395   QR= 38.50702843766855   TP= 2436894.2330778404      
   OM= 182.9046617956887   W=  67.45692167601075   IN= 27.20688886901326       
   A= 43.10263291899467    MA= 57.66131752467489   ADIST= 47.69823740032078    
   PER= 282.98532          N= .003482959           ANGMOM= .112292489          
   DAN= 40.93923           DDN= 44.42871           L= 247.8846276              
   B= 24.9780201           MOID= 37.59030151       TP= 1959-Nov-21.7330778404  
 
Asteroid physical parameters (km, seconds, rotational period in hours):        
   GM= n.a.                RAD= n.a.               ROTPER= 4.854               
   H= 3.6                  G= .150                 B-V= n.a.                   
                           ALBEDO= n.a.            STYP= n.a.                  
 
ASTEROID comments: 
1: soln ref.= JPL#11, OCC=3
2: source=ORB
*******************************************************************************
 

 

*******************************************************************************
Ephemeris / WWW_USER Sun Dec  1 19:27:13 2013 Pasadena, USA      / Horizons    
*******************************************************************************
Target body name: 120178 (2003 OP32)              {source: JPL#11}
Center body name: Earth (399)                     {source: DE-0431LE-0431}
Center-site name: San Pedro Martir
*******************************************************************************
Start time      : A.D. 2013-Jan-01 00:00:00.0000 UT      
Stop  time      : A.D. 2014-Dec-31 00:00:00.0000 UT      
Step-size       : 1440 minutes
*******************************************************************************
Target pole/equ : No model available
Target radii    : (unavailable)                                                
Center geodetic : 244.536700,31.0434585,2.8281109 {E-lon(deg),Lat(deg),Alt(km)}
Center cylindric: 244.536700,5471.93108,3271.4810 {E-lon(deg),Dxy(km),Dz(km)}
Center pole/equ : High-precision EOP model        {East-longitude +}
Center radii    : 6378.1 x 6378.1 x 6356.8 km     {Equator, meridian, pole}    
Target primary  : Sun
Vis. interferer : MOON (R_eq= 1737.400) km        {source: DE-0431LE-0431}
Rel. light bend : Sun, EARTH                      {source: DE-0431LE-0431}
Rel. lght bnd GM: 1.3271E+11, 3.9860E+05 km^3/s^2                              
Small-body perts: Yes                             {source: SB431-BIG16}
Atmos refraction: NO (AIRLESS)
RA format       : DEG
Time format     : BOTH
EOP file        : eop.131128.p140219                                           
EOP coverage    : DATA-BASED 1962-JAN-20 TO 2013-NOV-28. PREDICTS-> 2014-FEB-18
Units conversion: 1 au= 149597870.700 km, c= 299792.458 km/s, 1 day= 86400.0 s 
Table cut-offs 1: Elevation (-90.0deg=NO ),Airmass (>38.000=NO), Daylight (NO )
Table cut-offs 2: Solar Elongation (  0.0,180.0=NO ),Local Hour Angle( 0.0=NO )
*******************************************************************************
Initial FK5/J2000.0 heliocentric ecliptic osculating elements (au, days, deg.):
  EPOCH=  2453449.5 ! 2005-Mar-20.00 (CT)          Residual RMS= .33979        
   EC= .1066200408212395   QR= 38.50702843766855   TP= 2436894.2330778404      
   OM= 182.9046617956887   W=  67.45692167601075   IN= 27.20688886901326       
Asteroid physical parameters (km, seconds, rotational period in hours):        
   GM= n.a.                RAD= n.a.               ROTPER= 4.854               
   H= 3.6                  G= .150                 B-V= n.a.                   
                           ALBEDO= n.a.            STYP= n.a.                  
************************************************************************************************************
 Date__(UT)__HR:MN Date_________JDUT     R.A._(J2000.0)_DEC. dRA*cosD d(DEC)/dt            delta      deldot
************************************************************************************************************
$$SOE
 2013-Feb-21 00:00 2456344.500000000 *m  329.85041   2.73291 3.794062  1.198161 42.7565018873933   1.4987157
 2013-Feb-22 00:00 2456345.500000000 *m  329.87585   2.74094 3.789342  1.211786 42.7570167241702   1.0108135
 2013-Feb-23 00:00 2456346.500000000 *m  329.90125   2.74906 3.783752  1.225055 42.7572484067628   0.5234848
 2013-Feb-24 00:00 2456347.500000000 *m  329.92660   2.75727 3.777306  1.237971 42.7571973485391   0.0368048
 2013-Feb-25 00:00 2456348.500000000 *   329.95191   2.76556 3.770013  1.250535 42.7568639995747  -0.4491766
 2013-Feb-26 00:00 2456349.500000000 *   329.97715   2.77394 3.761885  1.262749 42.7562488317069  -0.9344354
 2013-Feb-27 00:00 2456350.500000000 *   330.00234   2.78240 3.752929  1.274614 42.7553523237526  -1.4189717
 2013-Feb-28 00:00 2456351.500000000 *   330.02746   2.79093 3.743145  1.286130 42.7541749496554  -1.9028019
 2013-Mar-01 00:00 2456352.500000000 *   330.05250   2.79954 3.732534  1.297295 42.7527171724289  -2.3859465
 2013-Mar-02 00:00 2456353.500000000 *   330.07747   2.80823 3.721088  1.308107 42.7509794459968  -2.8684150
 2013-Mar-03 00:00 2456354.500000000 *   330.10235   2.81698 3.708795  1.318560 42.7489622255932  -3.3501921
 2013-Mar-04 00:00 2456355.500000000 *   330.12715   2.82581 3.695643  1.328647 42.7466659858676  -3.8312254
 2013-Mar-05 00:00 2456356.500000000 *   330.15185   2.83470 3.681614  1.338359 42.7440912448070  -4.3114172
 2013-Mar-06 00:00 2456357.500000000 *   330.17644   2.84365 3.666693  1.347687 42.7412385912338  -4.7906203
 2013-Mar-07 00:00 2456358.500000000 *   330.20093   2.85266 3.650865  1.356621 42.7381087137043  -5.2686377
 2013-Mar-08 00:00 2456359.500000000 *   330.22531   2.86174 3.634120  1.365149 42.7347024286419  -5.7452254
 2013-Mar-09 00:00 2456360.500000000 *   330.24957   2.87087 3.616448  1.373264 42.7310207052434  -6.2201007
 2013-Mar-10 00:00 2456361.500000000 *   330.27370   2.88005 3.597850  1.380956 42.7270646843055  -6.6929555
 2013-Mar-11 00:00 2456362.500000000 *m  330.29770   2.88928 3.578329  1.388220 42.7228356882146  -7.1634728
 2013-Mar-12 00:00 2456363.500000000 *m  330.32156   2.89856 3.557898  1.395054 42.7183352204286  -7.6313461
 2013-Mar-13 00:00 2456364.500000000 *m  330.34527   2.90788 3.536570  1.401455 42.7135649548043  -8.0962947
 2013-Mar-14 00:00 2456365.500000000 *m  330.36884   2.91725 3.514365  1.407425 42.7085267173153  -8.5580741
 2013-Mar-15 00:00 2456366.500000000 *m  330.39225   2.92665 3.491304  1.412966 42.7032224640862  -9.0164784
 2013-Mar-16 00:00 2456367.500000000 *m  330.41550   2.93609 3.467406  1.418082 42.6976542596956  -9.4713372
 2013-Mar-17 00:00 2456368.500000000 *m  330.43858   2.94556 3.442692  1.422775 42.6918242585795  -9.9225089
 2013-Mar-18 00:00 2456369.500000000 *m  330.46149   2.95506 3.417182  1.427049 42.6857346907785 -10.3698723
 2013-Mar-19 00:00 2456370.500000000 *m  330.48422   2.96459 3.390892  1.430908 42.6793878518564 -10.8133209
 2013-Mar-20 00:00 2456371.500000000 *m  330.50676   2.97414 3.363841  1.434354 42.6727860958816 -11.2527585
 2013-Mar-21 00:00 2456372.500000000 *m  330.52912   2.98372 3.336045  1.437392 42.6659318299156 -11.6880978
 2013-Mar-22 00:00 2456373.500000000 *m  330.55129   2.99331 3.307521  1.440024 42.6588275083502 -12.1192626
 2013-Mar-23 00:00 2456374.500000000 *m  330.57326   3.00292 3.278288  1.442255 42.6514756255588 -12.5461916
 2013-Mar-24 00:00 2456375.500000000 *m  330.59503   3.01255 3.248361  1.444088 42.6438787056790 -12.9688440
 2013-Mar-25 00:00 2456376.500000000 *m  330.61658   3.02219 3.217759  1.445530 42.6360392889960 -13.3872053
 2013-Mar-26 00:00 2456377.500000000 *   330.63793   3.03183 3.186495  1.446583 42.6279599154869 -13.8012911
 2013-Mar-27 00:00 2456378.500000000 *   330.65906   3.04148 3.154580  1.447252 42.6196431076227 -14.2111454
 2013-Mar-28 00:00 2456379.500000000 *   330.67998   3.05113 3.122021  1.447539 42.6110913561341 -14.6168316
 2013-Mar-29 00:00 2456380.500000000 *   330.70066   3.06079 3.088817  1.447446 42.6023071133881 -15.0184152
 2013-Mar-30 00:00 2456381.500000000 *   330.72112   3.07044 3.054964  1.446970 42.5932927983651 -15.4159420
 2013-Mar-31 00:00 2456382.500000000 *   330.74135   3.08009 3.020450  1.446108 42.5840508146659 -15.8094158
 2013-Apr-01 00:00 2456383.500000000 *   330.76134   3.08973 2.985261  1.444851 42.5745835793533 -16.1987839
 2013-Apr-02 00:00 2456384.500000000 *   330.78108   3.09936 2.949385  1.443194 42.5648935574995 -16.5839322
 2013-Apr-03 00:00 2456385.500000000 *   330.80058   3.10898 2.912811  1.441128 42.5549832964372 -16.9646908
 2013-Apr-04 00:00 2456386.500000000 *   330.81983   3.11859 2.875532  1.438645 42.5448554549623 -17.3408452
 2013-Apr-05 00:00 2456387.500000000 *   330.83882   3.12817 2.837546  1.435739 42.5345128249680 -17.7121505
 2013-Apr-06 00:00 2456388.500000000 *   330.85755   3.13774 2.798856  1.432405 42.5239583449232 -18.0783454
 2013-Apr-07 00:00 2456389.500000000 *   330.87601   3.14728 2.759470  1.428640 42.5131951056379 -18.4391647
 2013-Apr-08 00:00 2456390.500000000 *   330.89421   3.15680 2.719402  1.424442 42.5022263490412 -18.7943510
 2013-Apr-09 00:00 2456391.500000000 *m  330.91213   3.16629 2.678669  1.419813 42.4910554607334 -19.1436648
 2013-Apr-10 00:00 2456392.500000000 *m  330.92977   3.17574 2.637292  1.414755 42.4796859572709 -19.4868921
 2013-Apr-11 00:00 2456393.500000000 *m  330.94713   3.18516 2.595293  1.409271 42.4681214695813 -19.8238503
 2013-Apr-12 00:00 2456394.500000000 *m  330.96420   3.19454 2.552697  1.403367 42.4563657243672 -20.1543891
